GLOBALSTAR M069         
1 31573U 07020C   26183.82008690 -.00000080  00000+0  11686-3 0  9994
2 31573  52.0000 207.8792 0001969 182.7585 348.3352 12.23471712880716
GLOBALSTAR M072         
1 31574U 07020D   26183.64444840 -.00000064  00000+0  27745-3 0  9991
2 31574  51.9940  59.0944 0001574   9.1170  16.5320 11.91658517876828
GLOBALSTAR M066         
1 32265U 07048C   26183.84572594 -.00000097  00000+0 -21912-4 0  9997
2 32265  51.9600  12.9617 0005672  76.3186  28.1104 12.30387691862156
GLOBALSTAR M079         
1 37188U 10054A   26183.44297325 -.00000081  00000+0  12812-3 0  9999
2 37188  52.0045  62.2295 0001015  55.7952 115.3468 12.62266386724475
GLOBALSTAR M074         
1 37189U 10054B   26183.84525186 -.00000089  00000+0  83344-4 0  9990
2 37189  52.0027  60.2675 0000796  74.0158   6.2004 12.62261843725134
GLOBALSTAR M076         
1 37190U 10054C   26183.87193686 -.00000081  00000+0  12852-3 0  9998
2 37190  52.0036  60.3909 0001015  70.4436  10.9926 12.62262034724857
GLOBALSTAR M077         
1 37191U 10054D   26183.64428971 -.00000088  00000+0 -17960-3 0  9995
2 37191  51.9935 140.0623 0002480 201.2549 329.5141 11.67547928722947
GLOBALSTAR M075         
1 37192U 10054E   26183.79182152 -.00000086  00000+0  10173-3 0  9996
2 37192  51.9946 102.6802 0000522  43.2347 334.2146 12.62267531723919
GLOBALSTAR M073         
1 37193U 10054F   26183.79115227 -.00000099  00000+0  23960-4 0  9999
2 37193  52.0076  16.7948 0001107  77.3573 295.4503 12.62266761725901
GLOBALSTAR M083         
1 37739U 11033A   26183.83727453 -.00000077  00000+0  14975-3 0  9999
2 37739  51.9878 324.8616 0000940  90.8821  72.9676 12.62263818694926
GLOBALSTAR M088         
1 37740U 11033B   26183.57372196 -.00000079  00000+0  13612-3 0  9991
2 37740  52.0194 232.1306 0000335 149.0966  15.0862 12.62269222690435
GLOBALSTAR M091         
1 37741U 11033C   26183.74689574 -.00000117  00000+0 -75438-4 0  9991
2 37741  51.9965 194.5448 0000102 346.7556 185.5197 12.62264139691247
GLOBALSTAR M085         
1 37742U 11033D   26183.85844472 -.00000109  00000+0 -27113-4 0  9992
2 37742  52.0106 145.5097 0000483  11.6411   7.8258 12.62264202691776
GLOBALSTAR M081         
1 37743U 11033E   26183.88608274 -.00000109  00000+0 -29077-4 0  9995
2 37743  51.9936 147.8439 0000381  38.6225 346.2522 12.62265317691929
GLOBALSTAR M089         
1 37744U 11033F   26183.76748940 -.00000085  00000+0  10282-3 0  9997
2 37744  51.9927 102.3613 0000564  79.9205 306.7830 12.62267463692758
GLOBALSTAR M084         
1 38040U 11080A   26183.81129109 -.00000095  00000+0  50703-4 0  9999
2 38040  52.0026 329.7172 0001060 111.2971  54.4628 12.62267693670738
GLOBALSTAR M080         
1 38041U 11080B   26183.86146882 -.00000104  00000+0  39045-6 0  9991
2 38041  52.0078 331.2881 0000441  81.0392  82.9213 12.62265375670869
GLOBALSTAR M082         
1 38042U 11080C   26183.71853836 -.00000077  00000+0  15027-3 0  9990
2 38042  52.0081 287.2267 0000383 111.1723  52.7414 12.62263848671558
GLOBALSTAR M092         
1 38043U 11080D   26183.81897215 -.00000085  00000+0  10372-3 0  9998
2 38043  52.0100  17.3181 0000847  86.5780 293.1501 12.62267382670027
GLOBALSTAR M090         
1 38044U 11080E   26183.55354530 -.00000117  00000+0 -73109-4 0  9993
2 38044  52.0133 281.6896 0000524 105.7704 267.0066 12.62252560671653
GLOBALSTAR M086         
1 38045U 11080F   26183.76837666 -.00000061  00000+0  23762-3 0  9999
2 38045  51.9900 280.9397 0001674  93.1440  78.7299 12.62287504671624
GLOBALSTAR M097         
1 39072U 13005A   26183.76219256 -.00000110  00000+0 -33069-4 0  9996
2 39072  52.0014 195.9248 0000164  48.5773 311.5108 12.62271336618870
GLOBALSTAR M093         
1 39073U 13005B   26183.73537201 -.00000111  00000+0 -39899-4 0  9995
2 39073  52.0073 189.3583 0000343  32.5888 327.5000 12.62266219618821
GLOBALSTAR M094         
1 39074U 13005C   26183.81441330 -.00000097  00000+0  36725-4 0  9999
2 39074  51.9959 103.2189 0000777  38.2636 321.8286 12.62268458620446
GLOBALSTAR M096         
1 39075U 13005D   26183.59038038 -.00000120  00000+0 -90594-4 0  9994
2 39075  52.0050 152.7140 0000427  15.1031 344.9848 12.62265644619332
GLOBALSTAR M078         
1 39076U 13005E   26183.48428001 -.00000041  00000+0  35164-3 0  9998
2 39076  51.9855 237.0279 0000535 296.7741  63.3071 12.62260201617948
GLOBALSTAR M095         
1 39077U 13005F   26183.82772536 -.00000084  00000+0  10932-3 0  9995
2 39077  52.0061 233.6079 0000126   4.2618 355.8249 12.62263881617843
GLOBALSTAR M087         
1 52888U 22064A   26183.20742044 -.00000100  00000+0  19810-4 0  9992
2 52888  52.0011  16.7246 0000930  66.5498 293.5466 12.62269302193032
